*******************************************************************************
Ephemeris / WWW_USER Mon Jul 15 19:23:01 2024 Pasadena, USA      / Horizons    
*******************************************************************************
Target body name: (2018 RB1)                      {source: JPL#5}
Center body name: Earth (399)                     {source: DE441}
Center-site name: Gemini South Obs., Cerro Pachon
*******************************************************************************
Start time      : A.D. 2019-Jan-08 23:58:00.0000 UT      
Stop  time      : A.D. 2019-Jan-09 09:41:00.0000 UT      
Step-size       : 1 minutes
*******************************************************************************
Target pole/equ : undefined
Target radii    : undefined                                                    
Center geodetic : 289.2634, -30.2406227, 2.71233  {E-lon(deg),Lat(deg),Alt(km)}
Center cylindric: 289.2634,5517.21435,-3194.81213 {E-lon(deg),Dxy(km),Dz(km)}
Center pole/equ : ITRF93                          {East-longitude positive}
Center radii    : 6378.137, 6378.137, 6356.752 km {Equator_a, b, pole_c}       
Target primary  : Sun
Vis. interferer : MOON (R_eq= 1737.400) km        {source: DE441}
Rel. light bend : Sun                             {source: DE441}
Rel. lght bnd GM: 1.3271E+11 km^3/s^2                                          
Small-body perts: Yes                             {source: SB441-N16}
Atmos refraction: NO (AIRLESS)
RA format       : HMS
Time format     : CAL 
Calendar mode   : Mixed Julian/Gregorian
RTS-only print  : NO       
EOP file        : eop.240715.p241008                                           
EOP coverage    : DATA-BASED 1962-JAN-20 TO 2024-JUL-15. PREDICTS-> 2024-OCT-07
Units conversion: 1 au= 149597870.700 km, c= 299792.458 km/s, 1 day= 86400.0 s 
Table cut-offs 1: Elevation (-90.0deg=NO ),Airmass (>38.000=NO), Daylight (YES)
Table cut-offs 2: Solar elongation (  0.0,180.0=NO ),Local Hour Angle( 0.0=NO )
Table cut-offs 3: RA/DEC angular rate (     0.0=NO )                           
*******************************************************************************
Initial IAU76/J2000 heliocentric ecliptic osculating elements (au, days, deg.):
  EPOCH=  2458368.5 ! 2018-Sep-07.00 (TDB)         Residual RMS= .299          
   EC= .2816093255492492   QR= .7991213126369837   TP= 2458438.7854507864      
   OM= 166.9631715555783   W=  267.8210074013559   IN= 5.127543488636634       
  Equivalent ICRF heliocentric cartesian coordinates (au, au/d):
   X= 9.883258176612897E-01  Y=-2.654573099408967E-01  Z=-1.095366816313374E-01
  VX= 1.112505236628486E-04 VY= 1.667631342697191E-02 VZ= 5.559084906068471E-03
Asteroid physical parameters (km, seconds, rotational period in hours):        
   GM= n.a.                RAD= n.a.               ROTPER= n.a.                
   H= 27.9                 G= .150                 B-V= n.a.                   
                           ALBEDO= n.a.            STYP= n.a.                  
*******************************************************************************
 Date__(UT)__HR:MN     R.A._________(ICRF)_________DEC
******************************************************
$$SOE
 2019-Jan-08 23:58 Cm  14 28 13.282196 -17 06 53.54380
 2019-Jan-08 23:59 Cm  14 28 13.403234 -17 06 53.77011
 2019-Jan-09 00:00 Cm  14 28 13.524273 -17 06 53.99649
 2019-Jan-09 00:01 Cm  14 28 13.645310 -17 06 54.22292
 2019-Jan-09 00:02 Cm  14 28 13.766348 -17 06 54.44941
 2019-Jan-09 00:03 Cm  14 28 13.887385 -17 06 54.67596
 2019-Jan-09 00:04 Cm  14 28 14.008421 -17 06 54.90257
 2019-Jan-09 00:05 Cm  14 28 14.129457 -17 06 55.12925
 2019-Jan-09 00:06 Cm  14 28 14.250491 -17 06 55.35598
 2019-Jan-09 00:07 Cm  14 28 14.371526 -17 06 55.58277
 2019-Jan-09 00:08 Cm  14 28 14.492559 -17 06 55.80962
 2019-Jan-09 00:09 Cm  14 28 14.613591 -17 06 56.03654
 2019-Jan-09 00:10 Cm  14 28 14.734623 -17 06 56.26351
 2019-Jan-09 00:11 Cm  14 28 14.855653 -17 06 56.49054
 2019-Jan-09 00:12 Cm  14 28 14.976682 -17 06 56.71764
 2019-Jan-09 00:13 Cm  14 28 15.097710 -17 06 56.94479
 2019-Jan-09 00:14 Cm  14 28 15.218737 -17 06 57.17200
 2019-Jan-09 00:15 Cm  14 28 15.339763 -17 06 57.39928
 2019-Jan-09 00:16 Cm  14 28 15.460787 -17 06 57.62661
 2019-Jan-09 00:17 Nm  14 28 15.581810 -17 06 57.85401
 2019-Jan-09 00:18 Nm  14 28 15.702831 -17 06 58.08146
 2019-Jan-09 00:19 Nm  14 28 15.823851 -17 06 58.30897
 2019-Jan-09 00:20 Nm  14 28 15.944869 -17 06 58.53655
 2019-Jan-09 00:21 Nm  14 28 16.065885 -17 06 58.76418
 2019-Jan-09 00:22 Nm  14 28 16.186899 -17 06 58.99187
 2019-Jan-09 00:23 Nm  14 28 16.307912 -17 06 59.21963
 2019-Jan-09 00:24 Nm  14 28 16.428923 -17 06 59.44744
 2019-Jan-09 00:25 Nm  14 28 16.549932 -17 06 59.67531
 2019-Jan-09 00:26 Nm  14 28 16.670939 -17 06 59.90324
 2019-Jan-09 00:27 Nm  14 28 16.791943 -17 07 00.13124
 2019-Jan-09 00:28 Nm  14 28 16.912946 -17 07 00.35929
 2019-Jan-09 00:29 Nm  14 28 17.033946 -17 07 00.58740
 2019-Jan-09 00:30 Nm  14 28 17.154944 -17 07 00.81557
 2019-Jan-09 00:31 Nm  14 28 17.275940 -17 07 01.04380
 2019-Jan-09 00:32 Nm  14 28 17.396933 -17 07 01.27209
 2019-Jan-09 00:33 Nm  14 28 17.517923 -17 07 01.50044
 2019-Jan-09 00:34 Nm  14 28 17.638911 -17 07 01.72885
 2019-Jan-09 00:35 Nm  14 28 17.759897 -17 07 01.95732
 2019-Jan-09 00:36 Nm  14 28 17.880880 -17 07 02.18585
 2019-Jan-09 00:37 Nm  14 28 18.001860 -17 07 02.41444
 2019-Jan-09 00:38 Nm  14 28 18.122837 -17 07 02.64308
 2019-Jan-09 00:39 Nm  14 28 18.243811 -17 07 02.87179
 2019-Jan-09 00:40 Nm  14 28 18.364783 -17 07 03.10056
 2019-Jan-09 00:41 Nm  14 28 18.485751 -17 07 03.32938
 2019-Jan-09 00:42 Nm  14 28 18.606716 -17 07 03.55826
 2019-Jan-09 00:43 Nm  14 28 18.727678 -17 07 03.78721
 2019-Jan-09 00:44 Nm  14 28 18.848637 -17 07 04.01621
 2019-Jan-09 00:45 Nm  14 28 18.969593 -17 07 04.24527
 2019-Jan-09 00:46 Nm  14 28 19.090545 -17 07 04.47439
 2019-Jan-09 00:47 Nm  14 28 19.211494 -17 07 04.70356
 2019-Jan-09 00:48 Nm  14 28 19.332439 -17 07 04.93280
 2019-Jan-09 00:49 Nm  14 28 19.453381 -17 07 05.16210
 2019-Jan-09 00:50 Am  14 28 19.574319 -17 07 05.39145
 2019-Jan-09 00:51 Am  14 28 19.695253 -17 07 05.62086
 2019-Jan-09 00:52 Am  14 28 19.816184 -17 07 05.85034
 2019-Jan-09 00:53 Am  14 28 19.937111 -17 07 06.07986
 2019-Jan-09 00:54 Am  14 28 20.058034 -17 07 06.30945
 2019-Jan-09 00:55 Am  14 28 20.178953 -17 07 06.53910
 2019-Jan-09 00:56 Am  14 28 20.299868 -17 07 06.76880
 2019-Jan-09 00:57 Am  14 28 20.420779 -17 07 06.99857
 2019-Jan-09 00:58 Am  14 28 20.541686 -17 07 07.22839
 2019-Jan-09 00:59 Am  14 28 20.662589 -17 07 07.45827
 2019-Jan-09 01:00 Am  14 28 20.783488 -17 07 07.68820
 2019-Jan-09 01:01 Am  14 28 20.904382 -17 07 07.91820
 2019-Jan-09 01:02 Am  14 28 21.025271 -17 07 08.14825
 2019-Jan-09 01:03 Am  14 28 21.146157 -17 07 08.37836
 2019-Jan-09 01:04 Am  14 28 21.267038 -17 07 08.60853
 2019-Jan-09 01:05 Am  14 28 21.387914 -17 07 08.83875
 2019-Jan-09 01:06 Am  14 28 21.508785 -17 07 09.06904
 2019-Jan-09 01:07 Am  14 28 21.629652 -17 07 09.29938
 2019-Jan-09 01:08 Am  14 28 21.750514 -17 07 09.52977
 2019-Jan-09 01:09 Am  14 28 21.871372 -17 07 09.76023
 2019-Jan-09 01:10 Am  14 28 21.992224 -17 07 09.99074
 2019-Jan-09 01:11 Am  14 28 22.113071 -17 07 10.22131
 2019-Jan-09 01:12 Am  14 28 22.233914 -17 07 10.45194
 2019-Jan-09 01:13 Am  14 28 22.354751 -17 07 10.68262
 2019-Jan-09 01:14 Am  14 28 22.475583 -17 07 10.91336
 2019-Jan-09 01:15 Am  14 28 22.596410 -17 07 11.14416
 2019-Jan-09 01:16 Am  14 28 22.717232 -17 07 11.37501
 2019-Jan-09 01:17 Am  14 28 22.838048 -17 07 11.60592
 2019-Jan-09 01:18 Am  14 28 22.958859 -17 07 11.83689
 2019-Jan-09 01:19 Am  14 28 23.079665 -17 07 12.06791
 2019-Jan-09 01:20 Am  14 28 23.200465 -17 07 12.29899
 2019-Jan-09 01:21 Am  14 28 23.321259 -17 07 12.53012
 2019-Jan-09 01:22 Am  14 28 23.442048 -17 07 12.76131
 2019-Jan-09 01:23 Am  14 28 23.562831 -17 07 12.99256
 2019-Jan-09 01:24 Am  14 28 23.683608 -17 07 13.22386
 2019-Jan-09 01:25  m  14 28 23.804379 -17 07 13.45522
 2019-Jan-09 01:26  m  14 28 23.925145 -17 07 13.68663
 2019-Jan-09 01:27  m  14 28 24.045904 -17 07 13.91810
 2019-Jan-09 01:28  m  14 28 24.166658 -17 07 14.14963
 2019-Jan-09 01:29  m  14 28 24.287405 -17 07 14.38121
 2019-Jan-09 01:30  m  14 28 24.408146 -17 07 14.61284
 2019-Jan-09 01:31  m  14 28 24.528881 -17 07 14.84453
 2019-Jan-09 01:32  m  14 28 24.649610 -17 07 15.07628
 2019-Jan-09 01:33  m  14 28 24.770333 -17 07 15.30808
 2019-Jan-09 01:34  m  14 28 24.891049 -17 07 15.53994
 2019-Jan-09 01:35  m  14 28 25.011758 -17 07 15.77185
 2019-Jan-09 01:36  m  14 28 25.132461 -17 07 16.00381
 2019-Jan-09 01:37  m  14 28 25.253158 -17 07 16.23583
 2019-Jan-09 01:38  m  14 28 25.373848 -17 07 16.46790
 2019-Jan-09 01:39  m  14 28 25.494531 -17 07 16.70003
 2019-Jan-09 01:40  m  14 28 25.615207 -17 07 16.93221
 2019-Jan-09 01:41  m  14 28 25.735877 -17 07 17.16445
 2019-Jan-09 01:42  m  14 28 25.856540 -17 07 17.39674
 2019-Jan-09 01:43  m  14 28 25.977195 -17 07 17.62908
 2019-Jan-09 01:44  m  14 28 26.097844 -17 07 17.86148
 2019-Jan-09 01:45  m  14 28 26.218486 -17 07 18.09393
 2019-Jan-09 01:46  m  14 28 26.339121 -17 07 18.32643
 2019-Jan-09 01:47  m  14 28 26.459748 -17 07 18.55899
 2019-Jan-09 01:48  m  14 28 26.580368 -17 07 18.79159
 2019-Jan-09 01:49  m  14 28 26.700981 -17 07 19.02426
 2019-Jan-09 01:50  m  14 28 26.821587 -17 07 19.25697
 2019-Jan-09 01:51  m  14 28 26.942185 -17 07 19.48974
 2019-Jan-09 01:52  m  14 28 27.062776 -17 07 19.72256
 2019-Jan-09 01:53  m  14 28 27.183359 -17 07 19.95543
 2019-Jan-09 01:54  m  14 28 27.303934 -17 07 20.18836
 2019-Jan-09 01:55     14 28 27.424502 -17 07 20.42134
 2019-Jan-09 01:56     14 28 27.545062 -17 07 20.65437
 2019-Jan-09 01:57     14 28 27.665615 -17 07 20.88745
 2019-Jan-09 01:58     14 28 27.786160 -17 07 21.12058
 2019-Jan-09 01:59     14 28 27.906696 -17 07 21.35376
 2019-Jan-09 02:00     14 28 28.027225 -17 07 21.58700
